{
  "type": "FeatureCollection",
  "features": [
    {
      "type": "Feature",
      "properties": {
        "norad_id": 54259,
        "name": "EUTELSAT 10B",
        "group": "eutelsat",
        "lat": -0.036367810287449044,
        "lon": -10.86778032127953,
        "alt_km": 35791.69954729486,
        "timestamp": "2025-12-02T17:49:11.697373+00:00",
        "meta_object_name": "EUTELSAT 10B",
        "meta_object_id": "2022-157A",
        "meta_epoch": "2025-12-02T08:41:46.771296",
        "meta_mean_motion": 1.00267677,
        "meta_eccentricity": 0.0001071,
        "meta_inclination": 0.0583,
        "meta_ra_of_asc_node": 104.7921,
        "meta_arg_of_pericenter": 66.8197,
        "meta_mean_anomaly": 40.3244,
        "meta_ephemeris_type": 0,
        "meta_classification_type": "U",
        "meta_norad_cat_id": 54259,
        "meta_element_set_no": 999,
        "meta_rev_at_epoch": 1105,
        "meta_bstar": 0,
        "meta_mean_motion_dot": 8.9e-07,
        "meta_mean_motion_ddot": 0,
        "tle_line1": "1 54259U 22157A   25336.36234689  .00000089  00000+0  00000+0 0  9997",
        "tle_line2": "2 54259   0.0583 104.7921 0001071  66.8197  40.3244  1.00267677 11053"
      },
      "geometry": {
        "type": "Point",
        "coordinates": [
          -10.86778032127953,
          -0.036367810287449044
        ]
      }
    },
    {
      "type": "Feature",
      "properties": {
        "norad_id": 59346,
        "name": "EUTELSAT 36D",
        "group": "eutelsat",
        "lat": 0.03434184706175271,
        "lon": 14.99930689959205,
        "alt_km": 35786.22083341782,
        "timestamp": "2025-12-02T17:49:11.697384+00:00",
        "meta_object_name": "EUTELSAT 36D",
        "meta_object_id": "2024-059A",
        "meta_epoch": "2025-12-02T06:56:38.709888",
        "meta_mean_motion": 1.00269594,
        "meta_eccentricity": 4.64e-05,
        "meta_inclination": 0.0132,
        "meta_ra_of_asc_node": 300.2901,
        "meta_arg_of_pericenter": 357.134,
        "meta_mean_anomaly": 274.017,
        "meta_ephemeris_type": 0,
        "meta_classification_type": "U",
        "meta_norad_cat_id": 59346,
        "meta_element_set_no": 999,
        "meta_rev_at_epoch": 617,
        "meta_bstar": 0,
        "meta_mean_motion_dot": 1.77e-06,
        "meta_mean_motion_ddot": 0,
        "tle_line1": "1 59346U 24059A   25336.28933692  .00000177  00000+0  00000+0 0  9991",
        "tle_line2": "2 59346   0.0132 300.2901 0000464 357.1340 274.0170  1.00269594  6178"
      },
      "geometry": {
        "type": "Point",
        "coordinates": [
          14.99930689959205,
          0.03434184706175271
        ]
      }
    }
  ]
}